COMMENT,ORIGINATOR,NORAD_CAT_ID,OBJECT_NAME,OBJECT_TYPE,CLASSIFICATION_TYPE,INTLDES,EPOCH,EPOCH_MICROSECONDS,MEAN_MOTION,ECCENTRICITY,INCLINATION,RA_OF_ASC_NODE,ARG_OF_PERICENTER,MEAN_ANOMALY,EPHEMERIS_TYPE,ELEMENT_SET_NO,REV_AT_EPOCH,BSTAR,MEAN_MOTION_DOT,MEAN_MOTION_DDOT,FILE,TLE_LINE0,TLE_LINE1,TLE_LINE2,OBJECT_ID,OBJECT_NUMBER,SEMIMAJOR_AXIS,PERIOD,APOGEE,PERIGEE,DECAYED
GENERATED VIA SPACETRACK.ORG API,18 SPCS,26998,TIMED,PAYLOAD,U,01055B,7/15/24 11:40,675072,14.91549163,0.0002697,74.0688,204.5643,261.4506,98.6371,0,999,22604,0.0002211,0.00002179,0,4380266,0 TIMED,1 26998U 01055B   24197.48667448  .00002179  00000-0  22110-3 0  9993,2 26998  74.0688 204.5643 0002697 261.4506  98.6371 14.91549163226042,2001-055B,26998,6971.241,96.544,594.987,591.226,0
GENERATED VIA SPACETRACK.ORG API,18 SPCS,26998,TIMED,PAYLOAD,U,01055B,7/15/24 18:07,44256,14.91550508,0.0002695,74.0688,204.0273,261.1416,98.9461,0,999,22608,0.00022647,0.00002233,0,4380878,0 TIMED,1 26998U 01055B   24197.75496579  .00002233  00000-0  22647-3 0  9994,2 26998  74.0688 204.0273 0002695 261.1416  98.9461 14.91550508226083,2001-055B,26998,6971.237,96.544,594.981,591.224,0
GENERATED VIA SPACETRACK.ORG API,18 SPCS,26998,TIMED,PAYLOAD,U,01055B,7/16/24 11:49,979808,14.9155342,0.0002696,74.0696,202.5506,260.5311,99.5567,0,999,22633,0.00023892,0.00002358,0,4381759,0 TIMED,1 26998U 01055B   24198.49276597  .00002358  00000-0  23892-3 0  9993,2 26998  74.0696 202.5506 0002696 260.5311  99.5567 14.91553420226330,2001-055B,26998,6971.228,96.544,594.973,591.214,0
GENERATED VIA SPACETRACK.ORG API,18 SPCS,26998,TIMED,PAYLOAD,U,01055B,7/17/24 10:21,895680,14.91558101,0.0002698,74.0694,200.6712,259.6681,100.4197,0,999,22633,0.00024134,0.00002383,0,4383859,0 TIMED,1 26998U 01055B   24199.43178120  .00002383  00000-0  24134-3 0  9999,2 26998  74.0694 200.6712 0002698 259.6681 100.4197 14.91558101226339,2001-055B,26998,6971.214,96.543,594.959,591.198,0
GENERATED VIA SPACETRACK.ORG API,18 SPCS,26998,TIMED,PAYLOAD,U,01055B,7/18/24 4:04,368992,14.9156449,0.0002689,74.0694,199.1944,258.2512,101.8369,0,999,22658,0.0003114,0.00003086,0,4384497,0 TIMED,1 26998U 01055B   24200.16957603  .00003086  00000-0  31140-3 0  9999,2 26998  74.0694 199.1944 0002689 258.2512 101.8369 14.91564490226587,2001-055B,26998,6971.194,96.543,594.933,591.184,0
GENERATED VIA SPACETRACK.ORG API,18 SPCS,26998,TIMED,PAYLOAD,U,01055B,7/18/24 12:07,525696,14.91566729,0.0002699,74.0694,198.5232,258.0517,102.0363,0,999,22649,0.00031979,0.00003171,0,4385553,0 TIMED,1 26998U 01055B   24200.50493664  .00003171  00000-0  31979-3 0  9994,2 26998  74.0694 198.5232 0002699 258.0517 102.0363 14.91566729226498,2001-055B,26998,6971.187,96.543,594.933,591.17,0
GENERATED VIA SPACETRACK.ORG API,18 SPCS,26998,TIMED,PAYLOAD,U,01055B,7/18/24 16:56,594144,14.91568166,0.0002695,74.0694,198.1205,257.7356,102.3524,0,999,22652,0.0003263,0.00003236,0,4386044,0 TIMED,1 26998U 01055B   24200.70615271  .00003236  00000-0  32630-3 0  9993,2 26998  74.0694 198.1205 0002695 257.7356 102.3524 14.91568166226520,2001-055B,26998,6971.182,96.543,594.926,591.169,0
GENERATED VIA SPACETRACK.ORG API,18 SPCS,26998,TIMED,PAYLOAD,U,01055B,7/19/24 4:12,724192,14.91570814,0.0002686,74.0695,197.1808,257.1154,102.9728,0,999,22673,0.00032297,0.00003203,0,4386243,0 TIMED,1 26998U 01055B   24201.17565653  .00003203  00000-0  32297-3 0  9996,2 26998  74.0695 197.1808 0002686 257.1154 102.9728 14.91570814226737,2001-055B,26998,6971.174,96.543,594.911,591.167,0
GENERATED VIA SPACETRACK.ORG API,18 SPCS,26998,TIMED,PAYLOAD,U,01055B,7/19/24 12:15,766848,14.91571374,0.0002685,74.0695,196.5096,256.8572,103.2311,0,999,22664,0.00027491,0.0000272,0,4387281,0 TIMED,1 26998U 01055B   24201.51101582  .00002720  00000-0  27491-3 0  9994,2 26998  74.0695 196.5096 0002685 256.8572 103.2311 14.91571374226642,2001-055B,26998,6971.172,96.542,594.909,591.166,0
GENERATED VIA SPACETRACK.ORG API,18 SPCS,26998,TIMED,PAYLOAD,U,01055B,7/19/24 17:05,778272,14.91572543,0.0002675,74.0695,196.1069,256.5803,103.5081,0,999,22667,0.00027488,0.0000272,0,4387890,0 TIMED,1 26998U 01055B   24201.71223123  .00002720  00000-0  27488-3 0  9998,2 26998  74.0695 196.1069 0002675 256.5803 103.5081 14.91572543226670,2001-055B,26998,6971.169,96.542,594.898,591.169,0
GENERATED VIA SPACETRACK.ORG API,18 SPCS,26998,TIMED,PAYLOAD,U,01055B,7/20/24 10:48,653696,14.91578112,0.0002677,74.0695,194.6302,255.5876,104.501,0,999,22692,0.00031121,0.00003085,0,4388709,0 TIMED,1 26998U 01055B   24202.45001914  .00003085  00000-0  31121-3 0  9996,2 26998  74.0695 194.6302 0002677 255.5876 104.5010 14.91578112226923,2001-055B,26998,6971.151,96.542,594.882,591.15,0
GENERATED VIA SPACETRACK.ORG API,18 SPCS,26998,TIMED,PAYLOAD,U,01055B,7/20/24 12:24,633024,14.91578491,0.0002676,74.0695,194.496,255.5582,104.5303,0,999,22679,0.00030836,0.00003057,0,4389230,0 TIMED,1 26998U 01055B   24202.51709066  .00003057  00000-0  30836-3 0  9997,2 26998  74.0695 194.4960 0002676 255.5582 104.5303 14.91578491226794,2001-055B,26998,6971.15,96.542,594.881,591.15,0
GENERATED VIA SPACETRACK.ORG API,18 SPCS,26998,TIMED,PAYLOAD,U,01055B,7/20/24 20:27,515840,14.91580602,0.0002661,74.0696,193.8248,254.9121,105.1767,0,999,22684,0.00031302,0.00003104,0,4389813,0 TIMED,1 26998U 01055B   24202.85244810  .00003104  00000-0  31302-3 0  9997,2 26998  74.0696 193.8248 0002661 254.9121 105.1767 14.91580602226847,2001-055B,26998,6971.144,96.542,594.864,591.153,0
GENERATED VIA SPACETRACK.ORG API,18 SPCS,26998,TIMED,PAYLOAD,U,01055B,7/21/24 10:56,212288,14.91584067,0.0002651,74.0696,192.6166,254.1547,105.9343,0,999,22707,0.00031192,0.00003093,0,4390611,0 TIMED,1 26998U 01055B   24203.45609042  .00003093  00000-0  31192-3 0  9990,2 26998  74.0696 192.6166 0002651 254.1547 105.9343 14.91584067227079,2001-055B,26998,6971.133,96.542,594.846,591.15,0
GENERATED VIA SPACETRACK.ORG API,18 SPCS,26998,TIMED,PAYLOAD,U,01055B,7/21/24 10:56,212288,14.91584067,0.0002651,74.0696,192.6166,254.1547,105.9343,0,999,22693,0.00031192,0.00003093,0,4391052,0 TIMED,1 26998U 01055B   24203.45609042  .00003093  00000-0  31192-3 0  9990,2 26998  74.0696 192.6166 0002651 254.1547 105.9343 14.91584067226933,2001-055B,26998,6971.133,96.542,594.846,591.15,0
GENERATED VIA SPACETRACK.ORG API,18 SPCS,26998,TIMED,PAYLOAD,U,01055B,7/21/24 12:33,168288,14.9158456,0.0002649,74.0696,192.4823,254.0843,106.0047,0,999,22694,0.00031432,0.00003117,0,4391543,0 TIMED,1 26998U 01055B   24203.52316167  .00003117  00000-0  31432-3 0  9995,2 26998  74.0696 192.4823 0002649 254.0843 106.0047 14.91584560226948,2001-055B,26998,6971.131,96.542,594.843,591.15,0
GENERATED VIA SPACETRACK.ORG API,18 SPCS,26998,TIMED,PAYLOAD,U,01055B,7/22/24 11:05,410592,14.91590358,0.000262,74.0698,190.6028,252.6196,107.47,0,999,22722,0.00031907,0.00003165,0,4392287,0 TIMED,1 26998U 01055B   24204.46215753  .00003165  00000-0  31907-3 0  9998,2 26998  74.0698 190.6028 0002620 252.6196 107.4700 14.91590358227226,2001-055B,26998,6971.113,96.541,594.805,591.152,0
GENERATED VIA SPACETRACK.ORG API,18 SPCS,26998,TIMED,PAYLOAD,U,01055B,7/22/24 12:42,342400,14.915908,0.0002619,74.0698,190.4686,252.5465,107.5432,0,999,22709,0.00031916,0.00003166,0,4392757,0 TIMED,1 26998U 01055B   24204.52922850  .00003166  00000-0  31916-3 0  9999,2 26998  74.0698 190.4686 0002619 252.5465 107.5432 14.91590800227090,2001-055B,26998,6971.112,96.541,594.802,591.151,0
GENERATED VIA SPACETRACK.ORG API,18 SPCS,26998,TIMED,PAYLOAD,U,01055B,7/22/24 22:21,900416,14.91593389,0.000262,74.0698,189.6631,251.7605,108.3292,0,999,22715,0.00031729,0.00003148,0,4393189,0 TIMED,1 26998U 01055B   24204.93165394  .00003148  00000-0  31729-3 0  9998,2 26998  74.0698 189.6631 0002620 251.7605 108.3292 14.91593389227154,2001-055B,26998,6971.104,96.541,594.795,591.142,0
GENERATED VIA SPACETRACK.ORG API,18 SPCS,26998,TIMED,PAYLOAD,U,01055B,7/23/24 11:14,285760,14.91596596,0.0002613,74.07,188.5891,251.0359,109.0541,0,999,22737,0.0003274,0.0000325,0,4394019,0 TIMED,1 26998U 01055B   24205.46822090  .00003250  00000-0  32740-3 0  9998,2 26998  74.0700 188.5891 0002613 251.0359 109.0541 14.91596596227377,2001-055B,26998,6971.094,96.541,594.78,591.137,0
GENERATED VIA SPACETRACK.ORG API,18 SPCS,26998,TIMED,PAYLOAD,U,01055B,7/23/24 12:50,196832,14.91597061,0.0002612,74.07,188.4549,250.9952,109.0948,0,999,22724,0.00032922,0.00003268,0,4394545,0 TIMED,1 26998U 01055B   24205.53529163  .00003268  00000-0  32922-3 0  9992,2 26998  74.0700 188.4549 0002612 250.9952 109.0948 14.91597061227247,2001-055B,26998,6971.092,96.541,594.778,591.136,0
GENERATED VIA SPACETRACK.ORG API,18 SPCS,26998,TIMED,PAYLOAD,U,01055B,7/23/24 22:30,632160,14.9159963,0.0002613,74.07,187.6495,250.2318,109.8583,0,999,22730,0.00033225,0.00003299,0,4395100,0 TIMED,1 26998U 01055B   24205.93771565  .00003299  00000-0  33225-3 0  9992,2 26998  74.0700 187.6495 0002613 250.2318 109.8583 14.91599630227302,2001-055B,26998,6971.084,96.541,594.771,591.128,0
GENERATED VIA SPACETRACK.ORG API,18 SPCS,26998,TIMED,PAYLOAD,U,01055B,7/24/24 9:46,927584,14.91601478,0.0002625,74.0702,186.7097,249.5217,110.5684,0,999,22737,0.00031078,0.00003083,0,4396351,0 TIMED,1 26998U 01055B   24206.40720981  .00003083  00000-0  31078-3 0  9996,2 26998  74.0702 186.7097 0002625 249.5217 110.5684 14.91601478227376,2001-055B,26998,6971.078,96.541,594.773,591.114,0
GENERATED VIA SPACETRACK.ORG API,18 SPCS,26998,TIMED,PAYLOAD,U,01055B,7/24/24 17:49,393952,14.91603113,0.0002617,74.0702,186.0386,248.9758,111.1144,0,999,22756,0.0003062,0.00003037,0,4396479,0 TIMED,1 26998U 01055B   24206.74256243  .00003037  00000-0  30620-3 0  9999,2 26998  74.0702 186.0386 0002617 248.9758 111.1144 14.91603113227561,2001-055B,26998,6971.073,96.54,594.763,591.114,0
